{"type":"FeatureCollection","name":"Maskanah Homs buildings","license":"© OpenStreetMap contributors, ODbL 1.0","notice":"No house numbers existed in the source export. Municipal verification required.","features":[{"type":"Feature","id":"osm-building-150473366","geometry":{"type":"Polygon","coordinates":[[[36.7064821,34.6620602],[36.7071064,34.6620723],[36.7071125,34.66186],[36.7064883,34.6618478],[36.7064821,34.6620602]]]},"properties":{"technical_code":"SY-HI-HO-MAS-BLD-OSM-150473366","osm_way_id":150473366,"building_type":"yes","centroid":[36.706797325,34.661960074999996],"quality_level":"D","official_status":"IMPORTED_UNVERIFIED","source":"OpenStreetMap contributors"}},{"type":"Feature","id":"osm-building-150592277","geometry":{"type":"Polygon","coordinates":[[[36.7276146,34.682518],[36.727693,34.6825249],[36.7276976,34.68249],[36.7275793,34.6824797],[36.7275764,34.6825022],[36.7276162,34.6825056],[36.7276146,34.682518]]]},"properties":{"technical_code":"SY-HI-HO-MAS-BLD-OSM-150592277","osm_way_id":150592277,"building_type":"roof","centroid":[36.72762951666667,34.6825034],"quality_level":"D","official_status":"IMPORTED_UNVERIFIED","source":"OpenStreetMap contributors"}},{"type":"Feature","id":"osm-building-150592281","geometry":{"type":"Polygon","coordinates":[[[36.7260009,34.6832567],[36.726097,34.6832786],[36.7261516,34.6831164],[36.7260555,34.6830945],[36.7260009,34.6832567]]]},"properties":{"technical_code":"SY-HI-HO-MAS-BLD-OSM-150592281","osm_way_id":150592281,"building_type":"yes","centroid":[36.726076250000006,34.68318655],"quality_level":"D","official_status":"IMPORTED_UNVERIFIED","source":"OpenStreetMap contributors"}},{"type":"Feature","id":"osm-building-150592286","geometry":{"type":"Polygon","coordinates":[[[36.7280174,34.6838569],[36.7281142,34.6838634],[36.7281438,34.6835651],[36.728047,34.6835586],[36.7280174,34.6838569]]]},"properties":{"technical_code":"SY-HI-HO-MAS-BLD-OSM-150592286","osm_way_id":150592286,"building_type":"yes","centroid":[36.7280806,34.683711],"quality_level":"D","official_status":"IMPORTED_UNVERIFIED","source":"OpenStreetMap contributors"}},{"type":"Feature","id":"osm-building-150592292","geometry":{"type":"Polygon","coordinates":[[[36.7279895,34.6821013],[36.7281415,34.6821146],[36.7281572,34.6819938],[36.7280051,34.6819805],[36.7279895,34.6821013]]]},"properties":{"technical_code":"SY-HI-HO-MAS-BLD-OSM-150592292","osm_way_id":150592292,"building_type":"yes","centroid":[36.728073325,34.68204755],"quality_level":"D","official_status":"IMPORTED_UNVERIFIED","source":"OpenStreetMap contributors"}},{"type":"Feature","id":"osm-building-150592293","geometry":{"type":"Polygon","coordinates":[[[36.7258793,34.6835695],[36.7260221,34.683602],[36.726103,34.6833618],[36.7259602,34.6833293],[36.7258793,34.6835695]]]},"properties":{"technical_code":"SY-HI-HO-MAS-BLD-OSM-150592293","osm_way_id":150592293,"building_type":"yes","centroid":[36.72599115,34.68346565],"quality_level":"D","official_status":"IMPORTED_UNVERIFIED","source":"OpenStreetMap contributors"}},{"type":"Feature","id":"osm-building-150592297","geometry":{"type":"Polygon","coordinates":[[[36.7286242,34.6817253],[36.7286685,34.6817292],[36.7286791,34.6816474],[36.7286348,34.6816435],[36.7286242,34.6817253]]]},"properties":{"technical_code":"SY-HI-HO-MAS-BLD-OSM-150592297","osm_way_id":150592297,"building_type":"yes","centroid":[36.72865165,34.68168635],"quality_level":"D","official_status":"IMPORTED_UNVERIFIED","source":"OpenStreetMap contributors"}},{"type":"Feature","id":"osm-building-150592300","geometry":{"type":"Polygon","coordinates":[[[36.7280221,34.6833507],[36.7281205,34.6833567],[36.72816,34.6829227],[36.7280616,34.6829166],[36.7280221,34.6833507]]]},"properties":{"technical_code":"SY-HI-HO-MAS-BLD-OSM-150592300","osm_way_id":150592300,"building_type":"yes","centroid":[36.72809105,34.683136675],"quality_level":"D","official_status":"IMPORTED_UNVERIFIED","source":"OpenStreetMap contributors"}},{"type":"Feature","id":"osm-building-150592304","geometry":{"type":"Polygon","coordinates":[[[36.7271932,34.6828296],[36.7273545,34.6828437],[36.7273827,34.6826255],[36.7272214,34.6826114],[36.7271932,34.6828296]]]},"properties":{"technical_code":"SY-HI-HO-MAS-BLD-OSM-150592304","osm_way_id":150592304,"building_type":"yes","centroid":[36.72728795,34.682727549999996],"quality_level":"D","official_status":"IMPORTED_UNVERIFIED","source":"OpenStreetMap contributors"}},{"type":"Feature","id":"osm-building-150592308","geometry":{"type":"Polygon","coordinates":[[[36.7277859,34.6820882],[36.7279304,34.6821008],[36.7279466,34.6819757],[36.7278021,34.6819631],[36.7277859,34.6820882]]]},"properties":{"technical_code":"SY-HI-HO-MAS-BLD-OSM-150592308","osm_way_id":150592308,"building_type":"yes","centroid":[36.72786625,34.68203195],"quality_level":"D","official_status":"IMPORTED_UNVERIFIED","source":"OpenStreetMap contributors"}},{"type":"Feature","id":"osm-building-150592309","geometry":{"type":"Polygon","coordinates":[[[36.7284066,34.6817105],[36.7285178,34.6817203],[36.7285284,34.6816383],[36.7284172,34.6816286],[36.7284066,34.6817105]]]},"properties":{"technical_code":"SY-HI-HO-MAS-BLD-OSM-150592309","osm_way_id":150592309,"building_type":"yes","centroid":[36.7284675,34.681674425000004],"quality_level":"D","official_status":"IMPORTED_UNVERIFIED","source":"OpenStreetMap contributors"}},{"type":"Feature","id":"osm-building-150592316","geometry":{"type":"Polygon","coordinates":[[[36.7263266,34.6822736],[36.7264813,34.6823088],[36.7266385,34.6818419],[36.7264838,34.6818066],[36.7263266,34.6822736]]]},"properties":{"technical_code":"SY-HI-HO-MAS-BLD-OSM-150592316","osm_way_id":150592316,"building_type":"yes","centroid":[36.72648255,34.682057725],"quality_level":"D","official_status":"IMPORTED_UNVERIFIED","source":"OpenStreetMap contributors"}},{"type":"Feature","id":"osm-building-150592318","geometry":{"type":"Polygon","coordinates":[[[36.7276761,34.6820767],[36.7277684,34.6820847],[36.7277839,34.6819651],[36.7276916,34.681957],[36.7276761,34.6820767]]]},"properties":{"technical_code":"SY-HI-HO-MAS-BLD-OSM-150592318","osm_way_id":150592318,"building_type":"yes","centroid":[36.72773,34.682020875],"quality_level":"D","official_status":"IMPORTED_UNVERIFIED","source":"OpenStreetMap contributors"}},{"type":"Feature","id":"osm-building-150592319","geometry":{"type":"Polygon","coordinates":[[[36.7289765,34.6834269],[36.7291247,34.6834365],[36.7290484,34.6832798],[36.7289271,34.6832737],[36.7289765,34.6834269]]]},"properties":{"technical_code":"SY-HI-HO-MAS-BLD-OSM-150592319","osm_way_id":150592319,"building_type":"yes","centroid":[36.729019175000005,34.683354225],"quality_level":"D","official_status":"IMPORTED_UNVERIFIED","source":"OpenStreetMap contributors"}},{"type":"Feature","id":"osm-building-150592320","geometry":{"type":"Polygon","coordinates":[[[36.7282065,34.682114],[36.7284165,34.6821324],[36.7284311,34.6820196],[36.7282211,34.6820012],[36.7282065,34.682114]]]},"properties":{"technical_code":"SY-HI-HO-MAS-BLD-OSM-150592320","osm_way_id":150592320,"building_type":"yes","centroid":[36.7283188,34.6820668],"quality_level":"D","official_status":"IMPORTED_UNVERIFIED","source":"OpenStreetMap contributors"}},{"type":"Feature","id":"osm-building-150592323","geometry":{"type":"Polygon","coordinates":[[[36.7267826,34.6839642],[36.7268951,34.6839725],[36.7269558,34.6834161],[36.7268433,34.6834078],[36.7267826,34.6839642]]]},"properties":{"technical_code":"SY-HI-HO-MAS-BLD-OSM-150592323","osm_way_id":150592323,"building_type":"yes","centroid":[36.726869199999996,34.683690150000004],"quality_level":"D","official_status":"IMPORTED_UNVERIFIED","source":"OpenStreetMap contributors"}},{"type":"Feature","id":"osm-building-150592324","geometry":{"type":"Polygon","coordinates":[[[36.7284311,34.683342],[36.7285199,34.6833463],[36.7285308,34.6831928],[36.7284421,34.6831885],[36.7284311,34.683342]]]},"properties":{"technical_code":"SY-HI-HO-MAS-BLD-OSM-150592324","osm_way_id":150592324,"building_type":"yes","centroid":[36.728480975000004,34.6832674],"quality_level":"D","official_status":"IMPORTED_UNVERIFIED","source":"OpenStreetMap contributors"}},{"type":"Feature","id":"osm-building-150592326","geometry":{"type":"Polygon","coordinates":[[[36.726196,34.6826446],[36.7263483,34.6826792],[36.726467,34.6823266],[36.7263147,34.6822919],[36.726196,34.6826446]]]},"properties":{"technical_code":"SY-HI-HO-MAS-BLD-OSM-150592326","osm_way_id":150592326,"building_type":"yes","centroid":[36.7263315,34.682485575],"quality_level":"D","official_status":"IMPORTED_UNVERIFIED","source":"OpenStreetMap contributors"}},{"type":"Feature","id":"osm-building-150592328","geometry":{"type":"Polygon","coordinates":[[[36.7272793,34.6822005],[36.7274266,34.6822134],[36.7274557,34.6819881],[36.7273084,34.6819752],[36.7272793,34.6822005]]]},"properties":{"technical_code":"SY-HI-HO-MAS-BLD-OSM-150592328","osm_way_id":150592328,"building_type":"yes","centroid":[36.7273675,34.6820943],"quality_level":"D","official_status":"IMPORTED_UNVERIFIED","source":"OpenStreetMap contributors"}},{"type":"Feature","id":"osm-building-150592330","geometry":{"type":"Polygon","coordinates":[[[36.7257922,34.6838239],[36.7259366,34.6838568],[36.7260175,34.6836165],[36.7258731,34.6835837],[36.7257922,34.6838239]]]},"properties":{"technical_code":"SY-HI-HO-MAS-BLD-OSM-150592330","osm_way_id":150592330,"building_type":"yes","centroid":[36.72590485,34.683720225],"quality_level":"D","official_status":"IMPORTED_UNVERIFIED","source":"OpenStreetMap contributors"}},{"type":"Feature","id":"osm-building-150592331","geometry":{"type":"Polygon","coordinates":[[[36.7284668,34.6838188],[36.7286825,34.6838318],[36.7287184,34.6834263],[36.7285028,34.6834134],[36.7284668,34.6838188]]]},"properties":{"technical_code":"SY-HI-HO-MAS-BLD-OSM-150592331","osm_way_id":150592331,"building_type":"yes","centroid":[36.728592625,34.683622575],"quality_level":"D","official_status":"IMPORTED_UNVERIFIED","source":"OpenStreetMap contributors"}},{"type":"Feature","id":"osm-building-150592333","geometry":{"type":"Polygon","coordinates":[[[36.7260627,34.6830646],[36.7262038,34.6830968],[36.7263381,34.6826979],[36.726197,34.6826657],[36.7260627,34.6830646]]]},"properties":{"technical_code":"SY-HI-HO-MAS-BLD-OSM-150592333","osm_way_id":150592333,"building_type":"yes","centroid":[36.726200399999996,34.68288125],"quality_level":"D","official_status":"IMPORTED_UNVERIFIED","source":"OpenStreetMap contributors"}},{"type":"Feature","id":"osm-building-150592334","geometry":{"type":"Polygon","coordinates":[[[36.7272257,34.6825789],[36.7273814,34.6825925],[36.7274275,34.6822365],[36.7272717,34.6822229],[36.7272257,34.6825789]]]},"properties":{"technical_code":"SY-HI-HO-MAS-BLD-OSM-150592334","osm_way_id":150592334,"building_type":"yes","centroid":[36.727326575,34.6824077],"quality_level":"D","official_status":"IMPORTED_UNVERIFIED","source":"OpenStreetMap contributors"}},{"type":"Feature","id":"osm-building-150596335","geometry":{"type":"Polygon","coordinates":[[[36.7371069,34.6866358],[36.737028,34.6866285],[36.7370176,34.6867044],[36.7372049,34.6867218],[36.7372126,34.6866651],[36.7374613,34.6866955],[36.7375151,34.6864202],[36.7372479,34.6863852],[36.7372451,34.6864486],[36.7371358,34.6864378],[36.7371069,34.6866358]]]},"properties":{"technical_code":"SY-HI-HO-MAS-BLD-OSM-150596335","osm_way_id":150596335,"building_type":"yes","centroid":[36.73721752,34.686574289999996],"quality_level":"D","official_status":"IMPORTED_UNVERIFIED","source":"OpenStreetMap contributors"}},{"type":"Feature","id":"osm-building-150596336","geometry":{"type":"Polygon","coordinates":[[[36.7466616,34.6455807],[36.7466597,34.645688],[36.7469386,34.6456914],[36.7469405,34.6455841],[36.7470085,34.6455849],[36.7470119,34.6453965],[36.7469439,34.6453957],[36.7469448,34.645345],[36.7466659,34.6453416],[36.746665,34.6453923],[36.7466068,34.6453916],[36.7466034,34.64558],[36.7466616,34.6455807]]]},"properties":{"technical_code":"SY-HI-HO-MAS-BLD-OSM-150596336","osm_way_id":150596336,"building_type":"yes","centroid":[36.74680421666667,34.64549765],"quality_level":"D","official_status":"IMPORTED_UNVERIFIED","source":"OpenStreetMap contributors"}},{"type":"Feature","id":"osm-building-150596339","geometry":{"type":"Polygon","coordinates":[[[36.7489316,34.647428],[36.7494161,34.6474303],[36.7494165,34.6473734],[36.748932,34.6473711],[36.7489316,34.647428]]]},"properties":{"technical_code":"SY-HI-HO-MAS-BLD-OSM-150596339","osm_way_id":150596339,"building_type":"yes","centroid":[36.74917405,34.6474007],"quality_level":"D","official_status":"IMPORTED_UNVERIFIED","source":"OpenStreetMap contributors"}},{"type":"Feature","id":"osm-building-150596340","geometry":{"type":"Polygon","coordinates":[[[36.7397141,34.6501008],[36.740087,34.650102],[36.7400875,34.6499978],[36.7397146,34.6499966],[36.7397141,34.6501008]]]},"properties":{"technical_code":"SY-HI-HO-MAS-BLD-OSM-150596340","osm_way_id":150596340,"building_type":"yes","centroid":[36.7399008,34.6500493],"quality_level":"D","official_status":"IMPORTED_UNVERIFIED","source":"OpenStreetMap contributors"}},{"type":"Feature","id":"osm-building-150596341","geometry":{"type":"Polygon","coordinates":[[[36.7404849,34.6854674],[36.7405642,34.685475],[36.7405792,34.6853681],[36.7404999,34.6853605],[36.7404849,34.6854674]]]},"properties":{"technical_code":"SY-HI-HO-MAS-BLD-OSM-150596341","osm_way_id":150596341,"building_type":"yes","centroid":[36.74053205,34.68541775],"quality_level":"D","official_status":"IMPORTED_UNVERIFIED","source":"OpenStreetMap contributors"}},{"type":"Feature","id":"osm-building-150596342","geometry":{"type":"Polygon","coordinates":[[[36.7402662,34.6469505],[36.7406635,34.6469521],[36.7406641,34.6468414],[36.7402668,34.6468398],[36.7402662,34.6469505]]]},"properties":{"technical_code":"SY-HI-HO-MAS-BLD-OSM-150596342","osm_way_id":150596342,"building_type":"yes","centroid":[36.74046515,34.64689595],"quality_level":"D","official_status":"IMPORTED_UNVERIFIED","source":"OpenStreetMap contributors"}},{"type":"Feature","id":"osm-building-150596344","geometry":{"type":"Polygon","coordinates":[[[36.7484626,34.6468863],[36.7492257,34.64689],[36.7492261,34.6468245],[36.7484631,34.6468208],[36.7484626,34.6468863]]]},"properties":{"technical_code":"SY-HI-HO-MAS-BLD-OSM-150596344","osm_way_id":150596344,"building_type":"yes","centroid":[36.748844375000004,34.6468554],"quality_level":"D","official_status":"IMPORTED_UNVERIFIED","source":"OpenStreetMap contributors"}},{"type":"Feature","id":"osm-building-150596348","geometry":{"type":"Polygon","coordinates":[[[36.7401902,34.6501117],[36.7405744,34.6501129],[36.7405749,34.6500001],[36.7401908,34.6499989],[36.7401902,34.6501117]]]},"properties":{"technical_code":"SY-HI-HO-MAS-BLD-OSM-150596348","osm_way_id":150596348,"building_type":"yes","centroid":[36.740382575,34.6500559],"quality_level":"D","official_status":"IMPORTED_UNVERIFIED","source":"OpenStreetMap contributors"}},{"type":"Feature","id":"osm-building-150596349","geometry":{"type":"Polygon","coordinates":[[[36.7392903,34.6850416],[36.7394957,34.6850611],[36.7395072,34.684979],[36.7393019,34.6849594],[36.7392903,34.6850416]]]},"properties":{"technical_code":"SY-HI-HO-MAS-BLD-OSM-150596349","osm_way_id":150596349,"building_type":"yes","centroid":[36.739398775,34.685010274999996],"quality_level":"D","official_status":"IMPORTED_UNVERIFIED","source":"OpenStreetMap contributors"}},{"type":"Feature","id":"osm-building-150596353","geometry":{"type":"Polygon","coordinates":[[[36.73978,34.6469524],[36.7401442,34.6469538],[36.7401448,34.6468426],[36.7397807,34.6468412],[36.73978,34.6469524]]]},"properties":{"technical_code":"SY-HI-HO-MAS-BLD-OSM-150596353","osm_way_id":150596353,"building_type":"yes","centroid":[36.739962425,34.6468975],"quality_level":"D","official_status":"IMPORTED_UNVERIFIED","source":"OpenStreetMap contributors"}},{"type":"Feature","id":"osm-building-150596354","geometry":{"type":"Polygon","coordinates":[[[36.7486501,34.6478281],[36.7494058,34.6478318],[36.7494062,34.6477784],[36.7486504,34.6477748],[36.7486501,34.6478281]]]},"properties":{"technical_code":"SY-HI-HO-MAS-BLD-OSM-150596354","osm_way_id":150596354,"building_type":"yes","centroid":[36.749028125,34.647803275],"quality_level":"D","official_status":"IMPORTED_UNVERIFIED","source":"OpenStreetMap contributors"}},{"type":"Feature","id":"osm-building-150596356","geometry":{"type":"Polygon","coordinates":[[[36.7412596,34.6468462],[36.7414612,34.646847],[36.7414615,34.6467856],[36.74126,34.6467848],[36.7412596,34.6468462]]]},"properties":{"technical_code":"SY-HI-HO-MAS-BLD-OSM-150596356","osm_way_id":150596356,"building_type":"yes","centroid":[36.741360575,34.6468159],"quality_level":"D","official_status":"IMPORTED_UNVERIFIED","source":"OpenStreetMap contributors"}},{"type":"Feature","id":"osm-building-150596357","geometry":{"type":"Polygon","coordinates":[[[36.7375214,34.6848599],[36.7376744,34.6848729],[36.7376853,34.6847867],[36.7375323,34.6847736],[36.7375214,34.6848599]]]},"properties":{"technical_code":"SY-HI-HO-MAS-BLD-OSM-150596357","osm_way_id":150596357,"building_type":"yes","centroid":[36.73760335,34.684823275],"quality_level":"D","official_status":"IMPORTED_UNVERIFIED","source":"OpenStreetMap contributors"}},{"type":"Feature","id":"osm-building-150596359","geometry":{"type":"Polygon","coordinates":[[[36.748664,34.6465325],[36.7494243,34.6465362],[36.7494248,34.6464691],[36.7486644,34.6464654],[36.748664,34.6465325]]]},"properties":{"technical_code":"SY-HI-HO-MAS-BLD-OSM-150596359","osm_way_id":150596359,"building_type":"yes","centroid":[36.749044375,34.6465008],"quality_level":"D","official_status":"IMPORTED_UNVERIFIED","source":"OpenStreetMap contributors"}},{"type":"Feature","id":"osm-building-150596360","geometry":{"type":"Polygon","coordinates":[[[36.7399809,34.6497006],[36.7404491,34.6497022],[36.7404496,34.6496024],[36.7399814,34.6496009],[36.7399809,34.6497006]]]},"properties":{"technical_code":"SY-HI-HO-MAS-BLD-OSM-150596360","osm_way_id":150596360,"building_type":"yes","centroid":[36.74021525,34.649651525],"quality_level":"D","official_status":"IMPORTED_UNVERIFIED","source":"OpenStreetMap contributors"}},{"type":"Feature","id":"osm-building-150596361","geometry":{"type":"Polygon","coordinates":[[[36.7395668,34.685062],[36.7397951,34.6850838],[36.7398052,34.6850116],[36.739577,34.6849899],[36.7395668,34.685062]]]},"properties":{"technical_code":"SY-HI-HO-MAS-BLD-OSM-150596361","osm_way_id":150596361,"building_type":"yes","centroid":[36.739686025,34.685036825],"quality_level":"D","official_status":"IMPORTED_UNVERIFIED","source":"OpenStreetMap contributors"}},{"type":"Feature","id":"osm-building-150596362","geometry":{"type":"Polygon","coordinates":[[[36.7381568,34.6844851],[36.7382309,34.6844928],[36.7382541,34.6843431],[36.7381799,34.6843353],[36.7381568,34.6844851]]]},"properties":{"technical_code":"SY-HI-HO-MAS-BLD-OSM-150596362","osm_way_id":150596362,"building_type":"yes","centroid":[36.738205425,34.684414075],"quality_level":"D","official_status":"IMPORTED_UNVERIFIED","source":"OpenStreetMap contributors"}},{"type":"Feature","id":"osm-building-150596363","geometry":{"type":"Polygon","coordinates":[[[36.7339052,34.6633135],[36.7340404,34.6633212],[36.7340542,34.6631574],[36.733919,34.6631497],[36.7339052,34.6633135]]]},"properties":{"technical_code":"SY-HI-HO-MAS-BLD-OSM-150596363","osm_way_id":150596363,"building_type":"yes","centroid":[36.7339797,34.66323545],"quality_level":"D","official_status":"IMPORTED_UNVERIFIED","source":"OpenStreetMap contributors"}},{"type":"Feature","id":"osm-building-150596365","geometry":{"type":"Polygon","coordinates":[[[36.7370672,34.6852796],[36.7371913,34.6852902],[36.7372011,34.6852125],[36.737077,34.6852019],[36.7370672,34.6852796]]]},"properties":{"technical_code":"SY-HI-HO-MAS-BLD-OSM-150596365","osm_way_id":150596365,"building_type":"yes","centroid":[36.73713415,34.68524605],"quality_level":"D","official_status":"IMPORTED_UNVERIFIED","source":"OpenStreetMap contributors"}},{"type":"Feature","id":"osm-building-150596367","geometry":{"type":"Polygon","coordinates":[[[36.7450896,34.6437446],[36.7455504,34.6437503],[36.7455524,34.6436403],[36.7450916,34.6436347],[36.7450896,34.6437446]]]},"properties":{"technical_code":"SY-HI-HO-MAS-BLD-OSM-150596367","osm_way_id":150596367,"building_type":"yes","centroid":[36.745321000000004,34.643692475],"quality_level":"D","official_status":"IMPORTED_UNVERIFIED","source":"OpenStreetMap contributors"}},{"type":"Feature","id":"osm-building-150596368","geometry":{"type":"Polygon","coordinates":[[[36.7412611,34.6473301],[36.741416,34.6473307],[36.7414173,34.6471033],[36.7412624,34.6471027],[36.7412611,34.6473301]]]},"properties":{"technical_code":"SY-HI-HO-MAS-BLD-OSM-150596368","osm_way_id":150596368,"building_type":"yes","centroid":[36.7413392,34.6472167],"quality_level":"D","official_status":"IMPORTED_UNVERIFIED","source":"OpenStreetMap contributors"}},{"type":"Feature","id":"osm-building-150596369","geometry":{"type":"Polygon","coordinates":[[[36.7374547,34.6853162],[36.7376068,34.6853291],[36.7376174,34.6852449],[36.7374653,34.6852319],[36.7374547,34.6853162]]]},"properties":{"technical_code":"SY-HI-HO-MAS-BLD-OSM-150596369","osm_way_id":150596369,"building_type":"yes","centroid":[36.73753605,34.685280524999996],"quality_level":"D","official_status":"IMPORTED_UNVERIFIED","source":"OpenStreetMap contributors"}},{"type":"Feature","id":"osm-building-150596371","geometry":{"type":"Polygon","coordinates":[[[36.7445508,34.6471331],[36.7447077,34.647133],[36.7447072,34.646617],[36.7445503,34.6466171],[36.7445508,34.6471331]]]},"properties":{"technical_code":"SY-HI-HO-MAS-BLD-OSM-150596371","osm_way_id":150596371,"building_type":"yes","centroid":[36.744629,34.64687505],"quality_level":"D","official_status":"IMPORTED_UNVERIFIED","source":"OpenStreetMap contributors"}},{"type":"Feature","id":"osm-building-150596373","geometry":{"type":"Polygon","coordinates":[[[36.7371899,34.684387],[36.7373622,34.6844017],[36.7373737,34.6843108],[36.7372014,34.6842961],[36.7371899,34.684387]]]},"properties":{"technical_code":"SY-HI-HO-MAS-BLD-OSM-150596373","osm_way_id":150596373,"building_type":"yes","centroid":[36.7372818,34.6843489],"quality_level":"D","official_status":"IMPORTED_UNVERIFIED","source":"OpenStreetMap contributors"}},{"type":"Feature","id":"osm-building-150596374","geometry":{"type":"Polygon","coordinates":[[[36.7373825,34.6857626],[36.7375276,34.6857771],[36.7375409,34.6856871],[36.7373957,34.6856727],[36.7373825,34.6857626]]]},"properties":{"technical_code":"SY-HI-HO-MAS-BLD-OSM-150596374","osm_way_id":150596374,"building_type":"yes","centroid":[36.737461675,34.685724875],"quality_level":"D","official_status":"IMPORTED_UNVERIFIED","source":"OpenStreetMap contributors"}},{"type":"Feature","id":"osm-building-150596375","geometry":{"type":"Polygon","coordinates":[[[36.7339146,34.6631403],[36.7341939,34.6631514],[36.7342056,34.6629528],[36.7339263,34.6629416],[36.7339146,34.6631403]]]},"properties":{"technical_code":"SY-HI-HO-MAS-BLD-OSM-150596375","osm_way_id":150596375,"building_type":"yes","centroid":[36.7340601,34.663046525],"quality_level":"D","official_status":"IMPORTED_UNVERIFIED","source":"OpenStreetMap contributors"}},{"type":"Feature","id":"osm-building-150596376","geometry":{"type":"Polygon","coordinates":[[[36.737128,34.6848204],[36.737279,34.6848333],[36.7372896,34.6847491],[36.7371387,34.6847363],[36.737128,34.6848204]]]},"properties":{"technical_code":"SY-HI-HO-MAS-BLD-OSM-150596376","osm_way_id":150596376,"building_type":"yes","centroid":[36.737208824999996,34.684784775],"quality_level":"D","official_status":"IMPORTED_UNVERIFIED","source":"OpenStreetMap contributors"}},{"type":"Feature","id":"osm-building-150596377","geometry":{"type":"Polygon","coordinates":[[[36.7305299,34.6831457],[36.7306375,34.6831415],[36.7306352,34.6831015],[36.7305275,34.6831057],[36.7305299,34.6831457]]]},"properties":{"technical_code":"SY-HI-HO-MAS-BLD-OSM-150596377","osm_way_id":150596377,"building_type":"yes","centroid":[36.730582525,34.6831236],"quality_level":"D","official_status":"IMPORTED_UNVERIFIED","source":"OpenStreetMap contributors"}},{"type":"Feature","id":"osm-building-150596379","geometry":{"type":"Polygon","coordinates":[[[36.7346724,34.6846771],[36.7348063,34.684664],[36.7347815,34.6844925],[36.7346475,34.6845056],[36.7346724,34.6846771]]]},"properties":{"technical_code":"SY-HI-HO-MAS-BLD-OSM-150596379","osm_way_id":150596379,"building_type":"yes","centroid":[36.734726925000004,34.684584799999996],"quality_level":"D","official_status":"IMPORTED_UNVERIFIED","source":"OpenStreetMap contributors"}},{"type":"Feature","id":"osm-building-150596380","geometry":{"type":"Polygon","coordinates":[[[36.7434982,34.6475138],[36.7436654,34.6475137],[36.7436649,34.6470131],[36.7434977,34.6470132],[36.7434982,34.6475138]]]},"properties":{"technical_code":"SY-HI-HO-MAS-BLD-OSM-150596380","osm_way_id":150596380,"building_type":"yes","centroid":[36.74358155,34.64726345],"quality_level":"D","official_status":"IMPORTED_UNVERIFIED","source":"OpenStreetMap contributors"}},{"type":"Feature","id":"osm-building-150596382","geometry":{"type":"Polygon","coordinates":[[[36.7364085,34.684383],[36.7366535,34.6844039],[36.7366585,34.6843639],[36.7364135,34.684343],[36.7364085,34.684383]]]},"properties":{"technical_code":"SY-HI-HO-MAS-BLD-OSM-150596382","osm_way_id":150596382,"building_type":"yes","centroid":[36.7365335,34.684373449999995],"quality_level":"D","official_status":"IMPORTED_UNVERIFIED","source":"OpenStreetMap contributors"}},{"type":"Feature","id":"osm-building-150596383","geometry":{"type":"Polygon","coordinates":[[[36.7397946,34.6859709],[36.7400216,34.6859925],[36.7400311,34.6859247],[36.7398042,34.6859031],[36.7397946,34.6859709]]]},"properties":{"technical_code":"SY-HI-HO-MAS-BLD-OSM-150596383","osm_way_id":150596383,"building_type":"yes","centroid":[36.739912875,34.6859478],"quality_level":"D","official_status":"IMPORTED_UNVERIFIED","source":"OpenStreetMap contributors"}},{"type":"Feature","id":"osm-building-150596384","geometry":{"type":"Polygon","coordinates":[[[36.7369423,34.6857078],[36.7371343,34.6857261],[36.7371464,34.68564],[36.7369544,34.6856218],[36.7369423,34.6857078]]]},"properties":{"technical_code":"SY-HI-HO-MAS-BLD-OSM-150596384","osm_way_id":150596384,"building_type":"yes","centroid":[36.737044350000005,34.685673925],"quality_level":"D","official_status":"IMPORTED_UNVERIFIED","source":"OpenStreetMap contributors"}},{"type":"Feature","id":"osm-building-150596386","geometry":{"type":"Polygon","coordinates":[[[36.7333104,34.6860967],[36.7334408,34.6861382],[36.7335649,34.6858744],[36.7334345,34.6858329],[36.7333104,34.6860967]]]},"properties":{"technical_code":"SY-HI-HO-MAS-BLD-OSM-150596386","osm_way_id":150596386,"building_type":"yes","centroid":[36.73343765,34.68598555],"quality_level":"D","official_status":"IMPORTED_UNVERIFIED","source":"OpenStreetMap contributors"}},{"type":"Feature","id":"osm-building-150596387","geometry":{"type":"Polygon","coordinates":[[[36.74391,34.6474414],[36.7446187,34.6474409],[36.7446186,34.6473248],[36.7439099,34.6473252],[36.74391,34.6474414]]]},"properties":{"technical_code":"SY-HI-HO-MAS-BLD-OSM-150596387","osm_way_id":150596387,"building_type":"yes","centroid":[36.7442643,34.647383075],"quality_level":"D","official_status":"IMPORTED_UNVERIFIED","source":"OpenStreetMap contributors"}},{"type":"Feature","id":"osm-building-150596388","geometry":{"type":"Polygon","coordinates":[[[36.7405513,34.6487125],[36.7407862,34.6487134],[36.7407871,34.6485646],[36.7405522,34.6485636],[36.7405513,34.6487125]]]},"properties":{"technical_code":"SY-HI-HO-MAS-BLD-OSM-150596388","osm_way_id":150596388,"building_type":"yes","centroid":[36.7406692,34.648638525],"quality_level":"D","official_status":"IMPORTED_UNVERIFIED","source":"OpenStreetMap contributors"}},{"type":"Feature","id":"osm-building-150596391","geometry":{"type":"Polygon","coordinates":[[[36.7391753,34.6859343],[36.7393632,34.6859522],[36.7393767,34.6858563],[36.7391888,34.6858384],[36.7391753,34.6859343]]]},"properties":{"technical_code":"SY-HI-HO-MAS-BLD-OSM-150596391","osm_way_id":150596391,"building_type":"yes","centroid":[36.739276000000004,34.6858953],"quality_level":"D","official_status":"IMPORTED_UNVERIFIED","source":"OpenStreetMap contributors"}},{"type":"Feature","id":"osm-building-150596392","geometry":{"type":"Polygon","coordinates":[[[36.7366379,34.6856693],[36.7368322,34.6856876],[36.7368425,34.6856135],[36.7366482,34.6855952],[36.7366379,34.6856693]]]},"properties":{"technical_code":"SY-HI-HO-MAS-BLD-OSM-150596392","osm_way_id":150596392,"building_type":"yes","centroid":[36.7367402,34.6856414],"quality_level":"D","official_status":"IMPORTED_UNVERIFIED","source":"OpenStreetMap contributors"}},{"type":"Feature","id":"osm-building-150596393","geometry":{"type":"Polygon","coordinates":[[[36.7363109,34.685634],[36.736497,34.6856552],[36.7365051,34.6856071],[36.736319,34.6855859],[36.7363109,34.685634]]]},"properties":{"technical_code":"SY-HI-HO-MAS-BLD-OSM-150596393","osm_way_id":150596393,"building_type":"yes","centroid":[36.736408,34.685620549999996],"quality_level":"D","official_status":"IMPORTED_UNVERIFIED","source":"OpenStreetMap contributors"}},{"type":"Feature","id":"osm-building-150596394","geometry":{"type":"Polygon","coordinates":[[[36.7345432,34.6848841],[36.7348677,34.6848459],[36.7348495,34.6847411],[36.734525,34.6847792],[36.7345432,34.6848841]]]},"properties":{"technical_code":"SY-HI-HO-MAS-BLD-OSM-150596394","osm_way_id":150596394,"building_type":"yes","centroid":[36.73469635,34.684812574999995],"quality_level":"D","official_status":"IMPORTED_UNVERIFIED","source":"OpenStreetMap contributors"}},{"type":"Feature","id":"osm-building-150596395","geometry":{"type":"Polygon","coordinates":[[[36.7395582,34.6859468],[36.7397129,34.6859616],[36.7397221,34.6858968],[36.7395673,34.685882],[36.7395582,34.6859468]]]},"properties":{"technical_code":"SY-HI-HO-MAS-BLD-OSM-150596395","osm_way_id":150596395,"building_type":"yes","centroid":[36.739640125,34.6859218],"quality_level":"D","official_status":"IMPORTED_UNVERIFIED","source":"OpenStreetMap contributors"}},{"type":"Feature","id":"osm-building-150596396","geometry":{"type":"Polygon","coordinates":[[[36.7405793,34.6491066],[36.7407092,34.6491071],[36.7407105,34.6488968],[36.7405805,34.6488963],[36.7405793,34.6491066]]]},"properties":{"technical_code":"SY-HI-HO-MAS-BLD-OSM-150596396","osm_way_id":150596396,"building_type":"yes","centroid":[36.740644875,34.6490017],"quality_level":"D","official_status":"IMPORTED_UNVERIFIED","source":"OpenStreetMap contributors"}},{"type":"Feature","id":"osm-building-150596397","geometry":{"type":"Polygon","coordinates":[[[36.7368472,34.686482],[36.7369748,34.6864887],[36.7369804,34.6864163],[36.7368528,34.6864095],[36.7368472,34.686482]]]},"properties":{"technical_code":"SY-HI-HO-MAS-BLD-OSM-150596397","osm_way_id":150596397,"building_type":"yes","centroid":[36.736913799999996,34.686449124999996],"quality_level":"D","official_status":"IMPORTED_UNVERIFIED","source":"OpenStreetMap contributors"}},{"type":"Feature","id":"osm-building-150596400","geometry":{"type":"Polygon","coordinates":[[[36.7484467,34.6481507],[36.7492043,34.6481543],[36.7492047,34.6480937],[36.7484471,34.6480901],[36.7484467,34.6481507]]]},"properties":{"technical_code":"SY-HI-HO-MAS-BLD-OSM-150596400","osm_way_id":150596400,"building_type":"yes","centroid":[36.7488257,34.6481222],"quality_level":"D","official_status":"IMPORTED_UNVERIFIED","source":"OpenStreetMap contributors"}},{"type":"Feature","id":"osm-building-150596401","geometry":{"type":"Polygon","coordinates":[[[36.7387824,34.6858948],[36.7389279,34.6859086],[36.7389397,34.6858253],[36.7387941,34.6858115],[36.7387824,34.6858948]]]},"properties":{"technical_code":"SY-HI-HO-MAS-BLD-OSM-150596401","osm_way_id":150596401,"building_type":"yes","centroid":[36.738861025,34.68586005],"quality_level":"D","official_status":"IMPORTED_UNVERIFIED","source":"OpenStreetMap contributors"}},{"type":"Feature","id":"osm-building-150596402","geometry":{"type":"Polygon","coordinates":[[[36.7375656,34.6857608],[36.7376675,34.6857685],[36.7376726,34.6857232],[36.7375707,34.6857155],[36.7375656,34.6857608]]]},"properties":{"technical_code":"SY-HI-HO-MAS-BLD-OSM-150596402","osm_way_id":150596402,"building_type":"yes","centroid":[36.7376191,34.685742],"quality_level":"D","official_status":"IMPORTED_UNVERIFIED","source":"OpenStreetMap contributors"}},{"type":"Feature","id":"osm-building-150596404","geometry":{"type":"Polygon","coordinates":[[[36.7400525,34.6465334],[36.7405147,34.6465352],[36.7405153,34.6464315],[36.7400531,34.6464297],[36.7400525,34.6465334]]]},"properties":{"technical_code":"SY-HI-HO-MAS-BLD-OSM-150596404","osm_way_id":150596404,"building_type":"yes","centroid":[36.740283899999994,34.64648245],"quality_level":"D","official_status":"IMPORTED_UNVERIFIED","source":"OpenStreetMap contributors"}},{"type":"Feature","id":"osm-building-150596407","geometry":{"type":"Polygon","coordinates":[[[36.7375063,34.6863048],[36.7375625,34.6863079],[36.7375719,34.6861924],[36.7375157,34.6861893],[36.7375063,34.6863048]]]},"properties":{"technical_code":"SY-HI-HO-MAS-BLD-OSM-150596407","osm_way_id":150596407,"building_type":"yes","centroid":[36.7375391,34.6862486],"quality_level":"D","official_status":"IMPORTED_UNVERIFIED","source":"OpenStreetMap contributors"}},{"type":"Feature","id":"osm-building-150596409","geometry":{"type":"Polygon","coordinates":[[[36.7455734,34.649688],[36.7462334,34.6496901],[36.7462342,34.6495216],[36.7455742,34.6495195],[36.7455734,34.649688]]]},"properties":{"technical_code":"SY-HI-HO-MAS-BLD-OSM-150596409","osm_way_id":150596409,"building_type":"yes","centroid":[36.7459038,34.6496048],"quality_level":"D","official_status":"IMPORTED_UNVERIFIED","source":"OpenStreetMap contributors"}},{"type":"Feature","id":"osm-building-150596410","geometry":{"type":"Polygon","coordinates":[[[36.7388897,34.6849939],[36.7390526,34.6850095],[36.7390652,34.6849204],[36.7389022,34.6849049],[36.7388897,34.6849939]]]},"properties":{"technical_code":"SY-HI-HO-MAS-BLD-OSM-150596410","osm_way_id":150596410,"building_type":"yes","centroid":[36.738977425,34.684957175],"quality_level":"D","official_status":"IMPORTED_UNVERIFIED","source":"OpenStreetMap contributors"}},{"type":"Feature","id":"osm-building-150596411","geometry":{"type":"Polygon","coordinates":[[[36.7449952,34.6440017],[36.7453855,34.6440065],[36.7453873,34.6439047],[36.7449971,34.6438999],[36.7449952,34.6440017]]]},"properties":{"technical_code":"SY-HI-HO-MAS-BLD-OSM-150596411","osm_way_id":150596411,"building_type":"yes","centroid":[36.745191274999996,34.6439532],"quality_level":"D","official_status":"IMPORTED_UNVERIFIED","source":"OpenStreetMap contributors"}},{"type":"Feature","id":"osm-building-150596412","geometry":{"type":"Polygon","coordinates":[[[36.7410621,34.6465795],[36.7412275,34.6465801],[36.7412286,34.6463758],[36.7410633,34.6463751],[36.7410621,34.6465795]]]},"properties":{"technical_code":"SY-HI-HO-MAS-BLD-OSM-150596412","osm_way_id":150596412,"building_type":"yes","centroid":[36.741145375,34.646477625],"quality_level":"D","official_status":"IMPORTED_UNVERIFIED","source":"OpenStreetMap contributors"}},{"type":"Feature","id":"osm-building-150596414","geometry":{"type":"Polygon","coordinates":[[[36.7456068,34.6492627],[36.7462064,34.6492646],[36.7462071,34.6491272],[36.7456074,34.6491253],[36.7456068,34.6492627]]]},"properties":{"technical_code":"SY-HI-HO-MAS-BLD-OSM-150596414","osm_way_id":150596414,"building_type":"yes","centroid":[36.745906925,34.64919495],"quality_level":"D","official_status":"IMPORTED_UNVERIFIED","source":"OpenStreetMap contributors"}},{"type":"Feature","id":"osm-building-150596415","geometry":{"type":"Polygon","coordinates":[[[36.7387953,34.6854963],[36.7389338,34.6855095],[36.7389675,34.6852703],[36.738829,34.6852571],[36.7387953,34.6854963]]]},"properties":{"technical_code":"SY-HI-HO-MAS-BLD-OSM-150596415","osm_way_id":150596415,"building_type":"yes","centroid":[36.7388814,34.6853833],"quality_level":"D","official_status":"IMPORTED_UNVERIFIED","source":"OpenStreetMap contributors"}},{"type":"Feature","id":"osm-building-150596416","geometry":{"type":"Polygon","coordinates":[[[36.7454757,34.6440065],[36.7458689,34.6440114],[36.7458708,34.6439071],[36.7454776,34.6439023],[36.7454757,34.6440065]]]},"properties":{"technical_code":"SY-HI-HO-MAS-BLD-OSM-150596416","osm_way_id":150596416,"building_type":"yes","centroid":[36.745673249999996,34.643956825000004],"quality_level":"D","official_status":"IMPORTED_UNVERIFIED","source":"OpenStreetMap contributors"}},{"type":"Feature","id":"osm-building-150596417","geometry":{"type":"Polygon","coordinates":[[[36.7411833,34.6458279],[36.7414592,34.645829],[36.7414604,34.6456388],[36.7411844,34.6456377],[36.7411833,34.6458279]]]},"properties":{"technical_code":"SY-HI-HO-MAS-BLD-OSM-150596417","osm_way_id":150596417,"building_type":"yes","centroid":[36.741321825,34.64573335],"quality_level":"D","official_status":"IMPORTED_UNVERIFIED","source":"OpenStreetMap contributors"}},{"type":"Feature","id":"osm-building-150596418","geometry":{"type":"Polygon","coordinates":[[[36.7398298,34.6857581],[36.7401634,34.6857899],[36.7401722,34.6857272],[36.7398386,34.6856955],[36.7398298,34.6857581]]]},"properties":{"technical_code":"SY-HI-HO-MAS-BLD-OSM-150596418","osm_way_id":150596418,"building_type":"yes","centroid":[36.740001,34.685742675],"quality_level":"D","official_status":"IMPORTED_UNVERIFIED","source":"OpenStreetMap contributors"}},{"type":"Feature","id":"osm-building-150596419","geometry":{"type":"Polygon","coordinates":[[[36.7394799,34.6465477],[36.7399482,34.6465495],[36.7399489,34.6464311],[36.7394806,34.6464292],[36.7394799,34.6465477]]]},"properties":{"technical_code":"SY-HI-HO-MAS-BLD-OSM-150596419","osm_way_id":150596419,"building_type":"yes","centroid":[36.7397144,34.646489375],"quality_level":"D","official_status":"IMPORTED_UNVERIFIED","source":"OpenStreetMap contributors"}},{"type":"Feature","id":"osm-building-150596420","geometry":{"type":"Polygon","coordinates":[[[36.738329,34.6847233],[36.7385139,34.6847409],[36.7385454,34.6845177],[36.7383604,34.6845],[36.738329,34.6847233]]]},"properties":{"technical_code":"SY-HI-HO-MAS-BLD-OSM-150596420","osm_way_id":150596420,"building_type":"yes","centroid":[36.738437175,34.684620475],"quality_level":"D","official_status":"IMPORTED_UNVERIFIED","source":"OpenStreetMap contributors"}},{"type":"Feature","id":"osm-building-150596421","geometry":{"type":"Polygon","coordinates":[[[36.7381247,34.686099],[36.7385303,34.6861304],[36.7385447,34.6860044],[36.7381391,34.6859731],[36.7381247,34.686099]]]},"properties":{"technical_code":"SY-HI-HO-MAS-BLD-OSM-150596421","osm_way_id":150596421,"building_type":"yes","centroid":[36.738334699999996,34.686051725],"quality_level":"D","official_status":"IMPORTED_UNVERIFIED","source":"OpenStreetMap contributors"}},{"type":"Feature","id":"osm-building-150596422","geometry":{"type":"Polygon","coordinates":[[[36.7435668,34.6460025],[36.7438445,34.6460063],[36.7438461,34.6459254],[36.7435684,34.6459217],[36.7435668,34.6460025]]]},"properties":{"technical_code":"SY-HI-HO-MAS-BLD-OSM-150596422","osm_way_id":150596422,"building_type":"yes","centroid":[36.743706450000005,34.645963975],"quality_level":"D","official_status":"IMPORTED_UNVERIFIED","source":"OpenStreetMap contributors"}},{"type":"Feature","id":"osm-building-150596424","geometry":{"type":"Polygon","coordinates":[[[36.729591,34.6832497],[36.7297961,34.6832326],[36.7297798,34.6831002],[36.7295747,34.6831172],[36.729591,34.6832497]]]},"properties":{"technical_code":"SY-HI-HO-MAS-BLD-OSM-150596424","osm_way_id":150596424,"building_type":"yes","centroid":[36.7296854,34.683174924999996],"quality_level":"D","official_status":"IMPORTED_UNVERIFIED","source":"OpenStreetMap contributors"}},{"type":"Feature","id":"osm-building-150596425","geometry":{"type":"Polygon","coordinates":[[[36.7486378,34.6502511],[36.7489187,34.650252],[36.7489192,34.6501568],[36.7486383,34.6501559],[36.7486378,34.6502511]]]},"properties":{"technical_code":"SY-HI-HO-MAS-BLD-OSM-150596425","osm_way_id":150596425,"building_type":"yes","centroid":[36.7487785,34.65020395],"quality_level":"D","official_status":"IMPORTED_UNVERIFIED","source":"OpenStreetMap contributors"}},{"type":"Feature","id":"osm-building-150596426","geometry":{"type":"Polygon","coordinates":[[[36.7364482,34.6842251],[36.7365973,34.6842378],[36.7366039,34.6841856],[36.7364548,34.6841729],[36.7364482,34.6842251]]]},"properties":{"technical_code":"SY-HI-HO-MAS-BLD-OSM-150596426","osm_way_id":150596426,"building_type":"yes","centroid":[36.736526049999995,34.68420535],"quality_level":"D","official_status":"IMPORTED_UNVERIFIED","source":"OpenStreetMap contributors"}},{"type":"Feature","id":"osm-building-150596427","geometry":{"type":"Polygon","coordinates":[[[36.7382367,34.6836496],[36.7383475,34.6836526],[36.7383591,34.6833626],[36.7382483,34.6833596],[36.7382367,34.6836496]]]},"properties":{"technical_code":"SY-HI-HO-MAS-BLD-OSM-150596427","osm_way_id":150596427,"building_type":"yes","centroid":[36.7382979,34.6835061],"quality_level":"D","official_status":"IMPORTED_UNVERIFIED","source":"OpenStreetMap contributors"}},{"type":"Feature","id":"osm-building-150596429","geometry":{"type":"Polygon","coordinates":[[[36.7395792,34.6857379],[36.7397524,34.6857544],[36.7397619,34.6856869],[36.7395887,34.6856704],[36.7395792,34.6857379]]]},"properties":{"technical_code":"SY-HI-HO-MAS-BLD-OSM-150596429","osm_way_id":150596429,"building_type":"yes","centroid":[36.73967055,34.6857124],"quality_level":"D","official_status":"IMPORTED_UNVERIFIED","source":"OpenStreetMap contributors"}},{"type":"Feature","id":"osm-building-150596430","geometry":{"type":"Polygon","coordinates":[[[36.7394319,34.6469867],[36.7396832,34.6469877],[36.7396841,34.6468341],[36.7394328,34.6468331],[36.7394319,34.6469867]]]},"properties":{"technical_code":"SY-HI-HO-MAS-BLD-OSM-150596430","osm_way_id":150596430,"building_type":"yes","centroid":[36.739558,34.646910399999996],"quality_level":"D","official_status":"IMPORTED_UNVERIFIED","source":"OpenStreetMap contributors"}},{"type":"Feature","id":"osm-building-150596431","geometry":{"type":"Polygon","coordinates":[[[36.7440129,34.6461552],[36.7441234,34.6461566],[36.7441255,34.6460523],[36.744015,34.6460508],[36.7440129,34.6461552]]]},"properties":{"technical_code":"SY-HI-HO-MAS-BLD-OSM-150596431","osm_way_id":150596431,"building_type":"yes","centroid":[36.7440692,34.646103725],"quality_level":"D","official_status":"IMPORTED_UNVERIFIED","source":"OpenStreetMap contributors"}},{"type":"Feature","id":"osm-building-150596434","geometry":{"type":"Polygon","coordinates":[[[36.7296448,34.6828993],[36.7297315,34.6828921],[36.7297224,34.6828178],[36.7296357,34.682825],[36.7296448,34.6828993]]]},"properties":{"technical_code":"SY-HI-HO-MAS-BLD-OSM-150596434","osm_way_id":150596434,"building_type":"yes","centroid":[36.7296836,34.68285855],"quality_level":"D","official_status":"IMPORTED_UNVERIFIED","source":"OpenStreetMap contributors"}},{"type":"Feature","id":"osm-building-150596435","geometry":{"type":"Polygon","coordinates":[[[36.7367347,34.6846117],[36.7368089,34.684618],[36.7368207,34.6845246],[36.7367464,34.6845182],[36.7367347,34.6846117]]]},"properties":{"technical_code":"SY-HI-HO-MAS-BLD-OSM-150596435","osm_way_id":150596435,"building_type":"yes","centroid":[36.736777675,34.684568125],"quality_level":"D","official_status":"IMPORTED_UNVERIFIED","source":"OpenStreetMap contributors"}},{"type":"Feature","id":"osm-building-150596442","geometry":{"type":"Polygon","coordinates":[[[36.7457504,34.6508507],[36.7459255,34.6508315],[36.7458817,34.6505623],[36.7457066,34.6505815],[36.7457504,34.6508507]]]},"properties":{"technical_code":"SY-HI-HO-MAS-BLD-OSM-150596442","osm_way_id":150596442,"building_type":"yes","centroid":[36.74581605,34.6507065],"quality_level":"D","official_status":"IMPORTED_UNVERIFIED","source":"OpenStreetMap contributors"}},{"type":"Feature","id":"osm-building-150596444","geometry":{"type":"Polygon","coordinates":[[[36.734429,34.6851237],[36.7347684,34.6850896],[36.7347539,34.6849919],[36.7344145,34.6850259],[36.734429,34.6851237]]]},"properties":{"technical_code":"SY-HI-HO-MAS-BLD-OSM-150596444","osm_way_id":150596444,"building_type":"yes","centroid":[36.734591449999996,34.685057775],"quality_level":"D","official_status":"IMPORTED_UNVERIFIED","source":"OpenStreetMap contributors"}},{"type":"Feature","id":"osm-building-150596445","geometry":{"type":"Polygon","coordinates":[[[36.748692,34.650666],[36.7491416,34.6506675],[36.7491441,34.6501479],[36.7490437,34.6501476],[36.7490418,34.6505423],[36.7486926,34.6505411],[36.748692,34.650666]]]},"properties":{"technical_code":"SY-HI-HO-MAS-BLD-OSM-150596445","osm_way_id":150596445,"building_type":"yes","centroid":[36.7489593,34.650452066666666],"quality_level":"D","official_status":"IMPORTED_UNVERIFIED","source":"OpenStreetMap contributors"}},{"type":"Feature","id":"osm-building-150596446","geometry":{"type":"Polygon","coordinates":[[[36.743609,34.64566],[36.7438493,34.6456632],[36.7438524,34.6455087],[36.7436121,34.6455054],[36.7436148,34.6453698],[36.7434543,34.6453676],[36.7434459,34.6457933],[36.7436064,34.6457955],[36.743609,34.64566]]]},"properties":{"technical_code":"SY-HI-HO-MAS-BLD-OSM-150596446","osm_way_id":150596446,"building_type":"yes","centroid":[36.743630525,34.6455829375],"quality_level":"D","official_status":"IMPORTED_UNVERIFIED","source":"OpenStreetMap contributors"}},{"type":"Feature","id":"osm-building-150596447","geometry":{"type":"Polygon","coordinates":[[[36.742756,34.6459374],[36.7429228,34.6459396],[36.7429251,34.6458269],[36.7430055,34.645828],[36.7430103,34.6455841],[36.7428546,34.645582],[36.7428516,34.6457323],[36.7427601,34.6457311],[36.742756,34.6459374]]]},"properties":{"technical_code":"SY-HI-HO-MAS-BLD-OSM-150596447","osm_way_id":150596447,"building_type":"yes","centroid":[36.74288575,34.645770175],"quality_level":"D","official_status":"IMPORTED_UNVERIFIED","source":"OpenStreetMap contributors"}},{"type":"Feature","id":"osm-building-150596448","geometry":{"type":"Polygon","coordinates":[[[36.7465521,34.6448377],[36.7467218,34.6448398],[36.7467237,34.644735],[36.746796,34.6447359],[36.7467997,34.6445273],[36.7466001,34.6445249],[36.7465987,34.6446033],[36.7465564,34.6446028],[36.7465521,34.6448377]]]},"properties":{"technical_code":"SY-HI-HO-MAS-BLD-OSM-150596448","osm_way_id":150596448,"building_type":"yes","centroid":[36.7466685625,34.6446758375],"quality_level":"D","official_status":"IMPORTED_UNVERIFIED","source":"OpenStreetMap contributors"}},{"type":"Feature","id":"osm-building-150596449","geometry":{"type":"Polygon","coordinates":[[[36.7414127,34.6489302],[36.7414132,34.6488471],[36.7411066,34.6488459],[36.7411055,34.649035],[36.7414038,34.6490362],[36.7414032,34.6491308],[36.741548,34.6491314],[36.7415491,34.6489308],[36.7414127,34.6489302]]]},"properties":{"technical_code":"SY-HI-HO-MAS-BLD-OSM-150596449","osm_way_id":150596449,"building_type":"yes","centroid":[36.7413677625,34.648985925],"quality_level":"D","official_status":"IMPORTED_UNVERIFIED","source":"OpenStreetMap contributors"}},{"type":"Feature","id":"osm-building-150596450","geometry":{"type":"Polygon","coordinates":[[[36.7428563,34.6487121],[36.7427838,34.6487129],[36.7427868,34.6489069],[36.7430022,34.6489047],[36.7430019,34.6488872],[36.7430637,34.6488866],[36.7430595,34.6486074],[36.7428548,34.6486095],[36.7428563,34.6487121]]]},"properties":{"technical_code":"SY-HI-HO-MAS-BLD-OSM-150596450","osm_way_id":150596450,"building_type":"yes","centroid":[36.742926125,34.6487784125],"quality_level":"D","official_status":"IMPORTED_UNVERIFIED","source":"OpenStreetMap contributors"}},{"type":"Feature","id":"osm-building-150596451","geometry":{"type":"Polygon","coordinates":[[[36.7435842,34.646437],[36.743853,34.6464368],[36.7438528,34.6463084],[36.7435841,34.6463086],[36.7435839,34.6461592],[36.743423,34.6461593],[36.7434234,34.6465862],[36.7435844,34.6465861],[36.7435842,34.646437]]]},"properties":{"technical_code":"SY-HI-HO-MAS-BLD-OSM-150596451","osm_way_id":150596451,"building_type":"yes","centroid":[36.7436111,34.6463727],"quality_level":"D","official_status":"IMPORTED_UNVERIFIED","source":"OpenStreetMap contributors"}},{"type":"Feature","id":"osm-building-150596452","geometry":{"type":"Polygon","coordinates":[[[36.7425211,34.6463849],[36.7425216,34.6463081],[36.742269,34.6463071],[36.7422681,34.6464609],[36.7424336,34.6464616],[36.7424331,34.6465385],[36.7427241,34.6465397],[36.742725,34.6463857],[36.7425211,34.6463849]]]},"properties":{"technical_code":"SY-HI-HO-MAS-BLD-OSM-150596452","osm_way_id":150596452,"building_type":"yes","centroid":[36.74248695,34.6464233125],"quality_level":"D","official_status":"IMPORTED_UNVERIFIED","source":"OpenStreetMap contributors"}},{"type":"Feature","id":"osm-building-150596454","geometry":{"type":"Polygon","coordinates":[[[36.7444656,34.6455281],[36.7444611,34.645759],[36.7446137,34.6457611],[36.7446183,34.6455301],[36.7448071,34.6455327],[36.7448099,34.6453923],[36.7442971,34.6453855],[36.7442943,34.6455258],[36.7444656,34.6455281]]]},"properties":{"technical_code":"SY-HI-HO-MAS-BLD-OSM-150596454","osm_way_id":150596454,"building_type":"yes","centroid":[36.7445458875,34.645551825],"quality_level":"D","official_status":"IMPORTED_UNVERIFIED","source":"OpenStreetMap contributors"}},{"type":"Feature","id":"osm-building-150596455","geometry":{"type":"Polygon","coordinates":[[[36.7444683,34.6503921],[36.7442887,34.6503945],[36.744294,34.6506584],[36.7451861,34.6506464],[36.7451809,34.6503825],[36.7450415,34.6503844],[36.7450409,34.6503431],[36.7444677,34.6503482],[36.7444683,34.6503921]]]},"properties":{"technical_code":"SY-HI-HO-MAS-BLD-OSM-150596455","osm_way_id":150596455,"building_type":"yes","centroid":[36.7447460125,34.6504437],"quality_level":"D","official_status":"IMPORTED_UNVERIFIED","source":"OpenStreetMap contributors"}},{"type":"Feature","id":"osm-building-150596456","geometry":{"type":"Polygon","coordinates":[[[36.7376994,34.6844762],[36.7377335,34.6844791],[36.7377479,34.6843652],[36.7376579,34.6843576],[36.737654,34.6843891],[36.7375998,34.6843844],[36.7375823,34.6845232],[36.7376923,34.6845325],[36.7376994,34.6844762]]]},"properties":{"technical_code":"SY-HI-HO-MAS-BLD-OSM-150596456","osm_way_id":150596456,"building_type":"yes","centroid":[36.7376708875,34.6844384125],"quality_level":"D","official_status":"IMPORTED_UNVERIFIED","source":"OpenStreetMap contributors"}},{"type":"Feature","id":"osm-building-150601731","geometry":{"type":"Polygon","coordinates":[[[36.7161026,34.6550199],[36.7164352,34.6550359],[36.7164404,34.6549625],[36.7161078,34.6549465],[36.7161026,34.6550199]]]},"properties":{"technical_code":"SY-HI-HO-MAS-BLD-OSM-150601731","osm_way_id":150601731,"building_type":"yes","centroid":[36.716271500000005,34.6549912],"quality_level":"D","official_status":"IMPORTED_UNVERIFIED","source":"OpenStreetMap contributors"}},{"type":"Feature","id":"osm-building-150601732","geometry":{"type":"Polygon","coordinates":[[[36.7138835,34.6645524],[36.7140198,34.6645524],[36.7140198,34.6643442],[36.7138835,34.6643442],[36.7138835,34.6645524]]]},"properties":{"technical_code":"SY-HI-HO-MAS-BLD-OSM-150601732","osm_way_id":150601732,"building_type":"yes","centroid":[36.71395165,34.664448300000004],"quality_level":"D","official_status":"IMPORTED_UNVERIFIED","source":"OpenStreetMap contributors"}},{"type":"Feature","id":"osm-building-150601737","geometry":{"type":"Polygon","coordinates":[[[36.714685,34.6587413],[36.7148537,34.6587206],[36.7148324,34.6586035],[36.7146637,34.6586242],[36.714685,34.6587413]]]},"properties":{"technical_code":"SY-HI-HO-MAS-BLD-OSM-150601737","osm_way_id":150601737,"building_type":"yes","centroid":[36.714758700000004,34.6586724],"quality_level":"D","official_status":"IMPORTED_UNVERIFIED","source":"OpenStreetMap contributors"}},{"type":"Feature","id":"osm-building-150601743","geometry":{"type":"Polygon","coordinates":[[[36.7145178,34.6646298],[36.7145276,34.6644016],[36.7144283,34.6643987],[36.7144186,34.6646269],[36.7145178,34.6646298]]]},"properties":{"technical_code":"SY-HI-HO-MAS-BLD-OSM-150601743","osm_way_id":150601743,"building_type":"yes","centroid":[36.714473075,34.664514249999996],"quality_level":"D","official_status":"IMPORTED_UNVERIFIED","source":"OpenStreetMap contributors"}},{"type":"Feature","id":"osm-building-150601744","geometry":{"type":"Polygon","coordinates":[[[36.7196792,34.6527532],[36.7198244,34.6527574],[36.7198439,34.6522996],[36.7196987,34.6522955],[36.7196792,34.6527532]]]},"properties":{"technical_code":"SY-HI-HO-MAS-BLD-OSM-150601744","osm_way_id":150601744,"building_type":"yes","centroid":[36.71976155,34.652526425],"quality_level":"D","official_status":"IMPORTED_UNVERIFIED","source":"OpenStreetMap contributors"}},{"type":"Feature","id":"osm-building-150601747","geometry":{"type":"Polygon","coordinates":[[[36.7162132,34.6639549],[36.716781,34.6639749],[36.7168006,34.6635988],[36.7162327,34.6635788],[36.7162132,34.6639549]]]},"properties":{"technical_code":"SY-HI-HO-MAS-BLD-OSM-150601747","osm_way_id":150601747,"building_type":"yes","centroid":[36.716506875,34.663776850000005],"quality_level":"D","official_status":"IMPORTED_UNVERIFIED","source":"OpenStreetMap contributors"}},{"type":"Feature","id":"osm-building-150601750","geometry":{"type":"Polygon","coordinates":[[[36.7162204,34.6526479],[36.7173821,34.6526746],[36.7174103,34.6518445],[36.7162486,34.6518178],[36.7162204,34.6526479]]]},"properties":{"technical_code":"SY-HI-HO-MAS-BLD-OSM-150601750","osm_way_id":150601750,"building_type":"yes","centroid":[36.71681535,34.6522462],"quality_level":"D","official_status":"IMPORTED_UNVERIFIED","source":"OpenStreetMap contributors"}},{"type":"Feature","id":"osm-building-150601751","geometry":{"type":"Polygon","coordinates":[[[36.7142063,34.6647392],[36.714414,34.6647446],[36.7144173,34.6646577],[36.7142096,34.6646523],[36.7142063,34.6647392]]]},"properties":{"technical_code":"SY-HI-HO-MAS-BLD-OSM-150601751","osm_way_id":150601751,"building_type":"yes","centroid":[36.7143118,34.66469845],"quality_level":"D","official_status":"IMPORTED_UNVERIFIED","source":"OpenStreetMap contributors"}},{"type":"Feature","id":"osm-building-150601757","geometry":{"type":"Polygon","coordinates":[[[36.7175168,34.6553424],[36.7185098,34.6553798],[36.7185257,34.6550934],[36.7175328,34.6550561],[36.7175168,34.6553424]]]},"properties":{"technical_code":"SY-HI-HO-MAS-BLD-OSM-150601757","osm_way_id":150601757,"building_type":"yes","centroid":[36.718021275,34.655217925],"quality_level":"D","official_status":"IMPORTED_UNVERIFIED","source":"OpenStreetMap contributors"}},{"type":"Feature","id":"osm-building-150601758","geometry":{"type":"Polygon","coordinates":[[[36.7158092,34.6641951],[36.7165221,34.6642202],[36.7165295,34.6640776],[36.7158166,34.6640525],[36.7158092,34.6641951]]]},"properties":{"technical_code":"SY-HI-HO-MAS-BLD-OSM-150601758","osm_way_id":150601758,"building_type":"yes","centroid":[36.71616935,34.66413635],"quality_level":"D","official_status":"IMPORTED_UNVERIFIED","source":"OpenStreetMap contributors"}},{"type":"Feature","id":"osm-building-150601760","geometry":{"type":"Polygon","coordinates":[[[36.7191505,34.6527405],[36.7192957,34.6527447],[36.7193152,34.6522869],[36.71917,34.6522828],[36.7191505,34.6527405]]]},"properties":{"technical_code":"SY-HI-HO-MAS-BLD-OSM-150601760","osm_way_id":150601760,"building_type":"yes","centroid":[36.71923285,34.652513725],"quality_level":"D","official_status":"IMPORTED_UNVERIFIED","source":"OpenStreetMap contributors"}},{"type":"Feature","id":"osm-building-150601762","geometry":{"type":"Polygon","coordinates":[[[36.7145883,34.6638391],[36.7145753,34.6635909],[36.7144828,34.6635942],[36.7144958,34.6638424],[36.7145883,34.6638391]]]},"properties":{"technical_code":"SY-HI-HO-MAS-BLD-OSM-150601762","osm_way_id":150601762,"building_type":"yes","centroid":[36.71453555,34.66371665],"quality_level":"D","official_status":"IMPORTED_UNVERIFIED","source":"OpenStreetMap contributors"}},{"type":"Feature","id":"osm-building-150601764","geometry":{"type":"Polygon","coordinates":[[[36.7191626,34.6517571],[36.7193411,34.6517591],[36.7193423,34.6516844],[36.7191638,34.6516824],[36.7191626,34.6517571]]]},"properties":{"technical_code":"SY-HI-HO-MAS-BLD-OSM-150601764","osm_way_id":150601764,"building_type":"yes","centroid":[36.71925245,34.651720749999996],"quality_level":"D","official_status":"IMPORTED_UNVERIFIED","source":"OpenStreetMap contributors"}},{"type":"Feature","id":"osm-building-150601766","geometry":{"type":"Polygon","coordinates":[[[36.7193235,34.6540059],[36.7194687,34.6540101],[36.7194882,34.6535523],[36.719343,34.6535482],[36.7193235,34.6540059]]]},"properties":{"technical_code":"SY-HI-HO-MAS-BLD-OSM-150601766","osm_way_id":150601766,"building_type":"yes","centroid":[36.71940585,34.653779125],"quality_level":"D","official_status":"IMPORTED_UNVERIFIED","source":"OpenStreetMap contributors"}},{"type":"Feature","id":"osm-building-150601771","geometry":{"type":"Polygon","coordinates":[[[36.7177342,34.6557481],[36.7186071,34.6557881],[36.7186224,34.6555624],[36.7177495,34.6555224],[36.7177342,34.6557481]]]},"properties":{"technical_code":"SY-HI-HO-MAS-BLD-OSM-150601771","osm_way_id":150601771,"building_type":"yes","centroid":[36.7181783,34.65565525],"quality_level":"D","official_status":"IMPORTED_UNVERIFIED","source":"OpenStreetMap contributors"}},{"type":"Feature","id":"osm-building-150601779","geometry":{"type":"Polygon","coordinates":[[[36.7189547,34.6568471],[36.7192857,34.6568537],[36.7192954,34.6565274],[36.7189644,34.6565207],[36.7189547,34.6568471]]]},"properties":{"technical_code":"SY-HI-HO-MAS-BLD-OSM-150601779","osm_way_id":150601779,"building_type":"yes","centroid":[36.71912505,34.656687225],"quality_level":"D","official_status":"IMPORTED_UNVERIFIED","source":"OpenStreetMap contributors"}},{"type":"Feature","id":"osm-building-150601781","geometry":{"type":"Polygon","coordinates":[[[36.7170783,34.656892],[36.7174364,34.6568959],[36.7174462,34.656294],[36.717088,34.6562901],[36.7170783,34.656892]]]},"properties":{"technical_code":"SY-HI-HO-MAS-BLD-OSM-150601781","osm_way_id":150601781,"building_type":"yes","centroid":[36.717262225,34.656593],"quality_level":"D","official_status":"IMPORTED_UNVERIFIED","source":"OpenStreetMap contributors"}},{"type":"Feature","id":"osm-building-150601786","geometry":{"type":"Polygon","coordinates":[[[36.7190384,34.6551567],[36.7197328,34.6551727],[36.7197469,34.6547609],[36.7190525,34.6547449],[36.7190384,34.6551567]]]},"properties":{"technical_code":"SY-HI-HO-MAS-BLD-OSM-150601786","osm_way_id":150601786,"building_type":"yes","centroid":[36.71939265,34.6549588],"quality_level":"D","official_status":"IMPORTED_UNVERIFIED","source":"OpenStreetMap contributors"}},{"type":"Feature","id":"osm-building-150601790","geometry":{"type":"Polygon","coordinates":[[[36.7193785,34.6533843],[36.7195238,34.6533885],[36.7195432,34.6529307],[36.719398,34.6529265],[36.7193785,34.6533843]]]},"properties":{"technical_code":"SY-HI-HO-MAS-BLD-OSM-150601790","osm_way_id":150601790,"building_type":"yes","centroid":[36.719460874999996,34.6531575],"quality_level":"D","official_status":"IMPORTED_UNVERIFIED","source":"OpenStreetMap contributors"}},{"type":"Feature","id":"osm-building-150601794","geometry":{"type":"Polygon","coordinates":[[[36.7199323,34.6527599],[36.7200775,34.6527641],[36.720097,34.6523063],[36.7199518,34.6523021],[36.7199323,34.6527599]]]},"properties":{"technical_code":"SY-HI-HO-MAS-BLD-OSM-150601794","osm_way_id":150601794,"building_type":"yes","centroid":[36.72001465,34.6525331],"quality_level":"D","official_status":"IMPORTED_UNVERIFIED","source":"OpenStreetMap contributors"}},{"type":"Feature","id":"osm-building-150601796","geometry":{"type":"Polygon","coordinates":[[[36.7195987,34.6540107],[36.7197439,34.6540149],[36.7197634,34.6535571],[36.7196182,34.6535529],[36.7195987,34.6540107]]]},"properties":{"technical_code":"SY-HI-HO-MAS-BLD-OSM-150601796","osm_way_id":150601796,"building_type":"yes","centroid":[36.71968105,34.6537839],"quality_level":"D","official_status":"IMPORTED_UNVERIFIED","source":"OpenStreetMap contributors"}},{"type":"Feature","id":"osm-building-150601802","geometry":{"type":"Polygon","coordinates":[[[36.7158617,34.6566231],[36.7166097,34.656642],[36.7166148,34.6565044],[36.7158669,34.6564855],[36.7158617,34.6566231]]]},"properties":{"technical_code":"SY-HI-HO-MAS-BLD-OSM-150601802","osm_way_id":150601802,"building_type":"yes","centroid":[36.716238275,34.656563750000004],"quality_level":"D","official_status":"IMPORTED_UNVERIFIED","source":"OpenStreetMap contributors"}},{"type":"Feature","id":"osm-building-150601804","geometry":{"type":"Polygon","coordinates":[[[36.719214,34.6546288],[36.7197455,34.6546448],[36.719766,34.6541843],[36.7192345,34.6541682],[36.719214,34.6546288]]]},"properties":{"technical_code":"SY-HI-HO-MAS-BLD-OSM-150601804","osm_way_id":150601804,"building_type":"yes","centroid":[36.71949,34.654406525],"quality_level":"D","official_status":"IMPORTED_UNVERIFIED","source":"OpenStreetMap contributors"}},{"type":"Feature","id":"osm-building-150601805","geometry":{"type":"Polygon","coordinates":[[[36.7196538,34.6533891],[36.719799,34.6533933],[36.7198184,34.6529355],[36.7196732,34.6529313],[36.7196538,34.6533891]]]},"properties":{"technical_code":"SY-HI-HO-MAS-BLD-OSM-150601805","osm_way_id":150601805,"building_type":"yes","centroid":[36.719736100000006,34.6531623],"quality_level":"D","official_status":"IMPORTED_UNVERIFIED","source":"OpenStreetMap contributors"}},{"type":"Feature","id":"osm-building-150601810","geometry":{"type":"Polygon","coordinates":[[[36.715058,34.6607443],[36.7159844,34.660771],[36.7159959,34.6605012],[36.7150695,34.6604745],[36.715058,34.6607443]]]},"properties":{"technical_code":"SY-HI-HO-MAS-BLD-OSM-150601810","osm_way_id":150601810,"building_type":"yes","centroid":[36.71552695,34.66062275],"quality_level":"D","official_status":"IMPORTED_UNVERIFIED","source":"OpenStreetMap contributors"}},{"type":"Feature","id":"osm-building-150601813","geometry":{"type":"Polygon","coordinates":[[[36.718737,34.6524026],[36.7187597,34.6519408],[36.7184586,34.6519308],[36.7184359,34.6523925],[36.718737,34.6524026]]]},"properties":{"technical_code":"SY-HI-HO-MAS-BLD-OSM-150601813","osm_way_id":150601813,"building_type":"yes","centroid":[36.7185978,34.652166675000004],"quality_level":"D","official_status":"IMPORTED_UNVERIFIED","source":"OpenStreetMap contributors"}},{"type":"Feature","id":"osm-building-150601816","geometry":{"type":"Polygon","coordinates":[[[36.7161476,34.6595362],[36.7185098,34.6596026],[36.7185223,34.6593014],[36.7161601,34.6592349],[36.7161476,34.6595362]]]},"properties":{"technical_code":"SY-HI-HO-MAS-BLD-OSM-150601816","osm_way_id":150601816,"building_type":"yes","centroid":[36.71733495,34.659418775],"quality_level":"D","official_status":"IMPORTED_UNVERIFIED","source":"OpenStreetMap contributors"}},{"type":"Feature","id":"osm-building-150601822","geometry":{"type":"Polygon","coordinates":[[[36.7158793,34.6588628],[36.7160903,34.6588727],[36.7161163,34.6584991],[36.7159053,34.6584892],[36.7158793,34.6588628]]]},"properties":{"technical_code":"SY-HI-HO-MAS-BLD-OSM-150601822","osm_way_id":150601822,"building_type":"yes","centroid":[36.7159978,34.658680950000004],"quality_level":"D","official_status":"IMPORTED_UNVERIFIED","source":"OpenStreetMap contributors"}},{"type":"Feature","id":"osm-building-150601824","geometry":{"type":"Polygon","coordinates":[[[36.7158663,34.6563155],[36.7167405,34.6563287],[36.7167435,34.6561948],[36.7158693,34.6561815],[36.7158663,34.6563155]]]},"properties":{"technical_code":"SY-HI-HO-MAS-BLD-OSM-150601824","osm_way_id":150601824,"building_type":"yes","centroid":[36.7163049,34.656255125],"quality_level":"D","official_status":"IMPORTED_UNVERIFIED","source":"OpenStreetMap contributors"}},{"type":"Feature","id":"osm-building-150601826","geometry":{"type":"Polygon","coordinates":[[[36.7143606,34.6557327],[36.7151394,34.655754],[36.7151465,34.6555775],[36.7143678,34.6555562],[36.7143606,34.6557327]]]},"properties":{"technical_code":"SY-HI-HO-MAS-BLD-OSM-150601826","osm_way_id":150601826,"building_type":"yes","centroid":[36.714753575,34.655655100000004],"quality_level":"D","official_status":"IMPORTED_UNVERIFIED","source":"OpenStreetMap contributors"}},{"type":"Feature","id":"osm-building-150601827","geometry":{"type":"Polygon","coordinates":[[[36.7178755,34.6544979],[36.7178869,34.6540602],[36.7175611,34.6540545],[36.7175497,34.6544922],[36.7178755,34.6544979]]]},"properties":{"technical_code":"SY-HI-HO-MAS-BLD-OSM-150601827","osm_way_id":150601827,"building_type":"yes","centroid":[36.7177183,34.6542762],"quality_level":"D","official_status":"IMPORTED_UNVERIFIED","source":"OpenStreetMap contributors"}},{"type":"Feature","id":"osm-building-150601831","geometry":{"type":"Polygon","coordinates":[[[36.7150531,34.6610703],[36.7153322,34.661073],[36.7153337,34.6609637],[36.7150547,34.660961],[36.7150531,34.6610703]]]},"properties":{"technical_code":"SY-HI-HO-MAS-BLD-OSM-150601831","osm_way_id":150601831,"building_type":"yes","centroid":[36.715193425,34.661017],"quality_level":"D","official_status":"IMPORTED_UNVERIFIED","source":"OpenStreetMap contributors"}},{"type":"Feature","id":"osm-building-150601832","geometry":{"type":"Polygon","coordinates":[[[36.71907,34.653998],[36.7192152,34.6540022],[36.7192347,34.6535444],[36.7190895,34.6535402],[36.71907,34.653998]]]},"properties":{"technical_code":"SY-HI-HO-MAS-BLD-OSM-150601832","osm_way_id":150601832,"building_type":"yes","centroid":[36.71915235,34.6537712],"quality_level":"D","official_status":"IMPORTED_UNVERIFIED","source":"OpenStreetMap contributors"}},{"type":"Feature","id":"osm-building-150601834","geometry":{"type":"Polygon","coordinates":[[[36.7161097,34.6584812],[36.7161373,34.6581275],[36.7159405,34.6581171],[36.7159129,34.6584708],[36.7161097,34.6584812]]]},"properties":{"technical_code":"SY-HI-HO-MAS-BLD-OSM-150601834","osm_way_id":150601834,"building_type":"yes","centroid":[36.716025099999996,34.65829915],"quality_level":"D","official_status":"IMPORTED_UNVERIFIED","source":"OpenStreetMap contributors"}},{"type":"Feature","id":"osm-building-150601837","geometry":{"type":"Polygon","coordinates":[[[36.7151384,34.6554665],[36.7153982,34.6554729],[36.7154119,34.6550973],[36.7151522,34.6550909],[36.7151384,34.6554665]]]},"properties":{"technical_code":"SY-HI-HO-MAS-BLD-OSM-150601837","osm_way_id":150601837,"building_type":"yes","centroid":[36.715275175,34.6552819],"quality_level":"D","official_status":"IMPORTED_UNVERIFIED","source":"OpenStreetMap contributors"}},{"type":"Feature","id":"osm-building-150601841","geometry":{"type":"Polygon","coordinates":[[[36.715045,34.6609289],[36.7153354,34.6609355],[36.715338,34.6608581],[36.7150476,34.6608514],[36.715045,34.6609289]]]},"properties":{"technical_code":"SY-HI-HO-MAS-BLD-OSM-150601841","osm_way_id":150601841,"building_type":"yes","centroid":[36.7151915,34.660893475],"quality_level":"D","official_status":"IMPORTED_UNVERIFIED","source":"OpenStreetMap contributors"}},{"type":"Feature","id":"osm-building-150601843","geometry":{"type":"Polygon","coordinates":[[[36.7191251,34.6533764],[36.7192703,34.6533806],[36.7192897,34.6529228],[36.7191445,34.6529186],[36.7191251,34.6533764]]]},"properties":{"technical_code":"SY-HI-HO-MAS-BLD-OSM-150601843","osm_way_id":150601843,"building_type":"yes","centroid":[36.7192074,34.6531496],"quality_level":"D","official_status":"IMPORTED_UNVERIFIED","source":"OpenStreetMap contributors"}},{"type":"Feature","id":"osm-building-150601854","geometry":{"type":"Polygon","coordinates":[[[36.7139993,34.6638164],[36.7140915,34.6638101],[36.7140752,34.6636513],[36.7139831,34.6636576],[36.7139993,34.6638164]]]},"properties":{"technical_code":"SY-HI-HO-MAS-BLD-OSM-150601854","osm_way_id":150601854,"building_type":"yes","centroid":[36.714037275,34.66373385],"quality_level":"D","official_status":"IMPORTED_UNVERIFIED","source":"OpenStreetMap contributors"}},{"type":"Feature","id":"osm-building-150601856","geometry":{"type":"Polygon","coordinates":[[[36.7143606,34.6554552],[36.7143767,34.6551324],[36.7141799,34.6551258],[36.7141638,34.6554485],[36.7143606,34.6554552]]]},"properties":{"technical_code":"SY-HI-HO-MAS-BLD-OSM-150601856","osm_way_id":150601856,"building_type":"yes","centroid":[36.71427025,34.655290475],"quality_level":"D","official_status":"IMPORTED_UNVERIFIED","source":"OpenStreetMap contributors"}},{"type":"Feature","id":"osm-building-150601861","geometry":{"type":"Polygon","coordinates":[[[36.7199068,34.6533958],[36.7200521,34.6533999],[36.7200715,34.6529422],[36.7199263,34.652938],[36.7199068,34.6533958]]]},"properties":{"technical_code":"SY-HI-HO-MAS-BLD-OSM-150601861","osm_way_id":150601861,"building_type":"yes","centroid":[36.719989174999995,34.653168975],"quality_level":"D","official_status":"IMPORTED_UNVERIFIED","source":"OpenStreetMap contributors"}},{"type":"Feature","id":"osm-building-150601862","geometry":{"type":"Polygon","coordinates":[[[36.7172807,34.6644152],[36.7176863,34.6644259],[36.7176955,34.6641888],[36.7172899,34.6641781],[36.7172807,34.6644152]]]},"properties":{"technical_code":"SY-HI-HO-MAS-BLD-OSM-150601862","osm_way_id":150601862,"building_type":"yes","centroid":[36.7174881,34.664302],"quality_level":"D","official_status":"IMPORTED_UNVERIFIED","source":"OpenStreetMap contributors"}},{"type":"Feature","id":"osm-building-150601868","geometry":{"type":"Polygon","coordinates":[[[36.7198518,34.6540174],[36.719997,34.6540216],[36.7200165,34.6535638],[36.7198713,34.6535596],[36.7198518,34.6540174]]]},"properties":{"technical_code":"SY-HI-HO-MAS-BLD-OSM-150601868","osm_way_id":150601868,"building_type":"yes","centroid":[36.71993415,34.6537906],"quality_level":"D","official_status":"IMPORTED_UNVERIFIED","source":"OpenStreetMap contributors"}},{"type":"Feature","id":"osm-building-150601878","geometry":{"type":"Polygon","coordinates":[[[36.7136467,34.6650828],[36.7136479,34.6649733],[36.7135757,34.6649728],[36.7135746,34.6650822],[36.7136467,34.6650828]]]},"properties":{"technical_code":"SY-HI-HO-MAS-BLD-OSM-150601878","osm_way_id":150601878,"building_type":"yes","centroid":[36.713611225,34.665027775],"quality_level":"D","official_status":"IMPORTED_UNVERIFIED","source":"OpenStreetMap contributors"}},{"type":"Feature","id":"osm-building-150601883","geometry":{"type":"Polygon","coordinates":[[[36.714035,34.6627449],[36.7146929,34.662767],[36.7147296,34.6620272],[36.7140717,34.6620052],[36.714035,34.6627449]]]},"properties":{"technical_code":"SY-HI-HO-MAS-BLD-OSM-150601883","osm_way_id":150601883,"building_type":"yes","centroid":[36.7143823,34.662386075],"quality_level":"D","official_status":"IMPORTED_UNVERIFIED","source":"OpenStreetMap contributors"}},{"type":"Feature","id":"osm-building-150601884","geometry":{"type":"Polygon","coordinates":[[[36.7168174,34.6556895],[36.716861,34.6551573],[36.7164275,34.6551332],[36.7163839,34.6556655],[36.7168174,34.6556895]]]},"properties":{"technical_code":"SY-HI-HO-MAS-BLD-OSM-150601884","osm_way_id":150601884,"building_type":"yes","centroid":[36.71662245,34.655411375],"quality_level":"D","official_status":"IMPORTED_UNVERIFIED","source":"OpenStreetMap contributors"}},{"type":"Feature","id":"osm-building-150601894","geometry":{"type":"Polygon","coordinates":[[[36.7200245,34.6518696],[36.7202419,34.6518736],[36.7202445,34.6517774],[36.7200271,34.6517734],[36.7200245,34.6518696]]]},"properties":{"technical_code":"SY-HI-HO-MAS-BLD-OSM-150601894","osm_way_id":150601894,"building_type":"yes","centroid":[36.7201345,34.6518235],"quality_level":"D","official_status":"IMPORTED_UNVERIFIED","source":"OpenStreetMap contributors"}},{"type":"Feature","id":"osm-building-150601905","geometry":{"type":"Polygon","coordinates":[[[36.7146706,34.6544743],[36.7150129,34.6544837],[36.7150164,34.6543983],[36.714674,34.654389],[36.7146706,34.6544743]]]},"properties":{"technical_code":"SY-HI-HO-MAS-BLD-OSM-150601905","osm_way_id":150601905,"building_type":"yes","centroid":[36.714843475,34.654436325],"quality_level":"D","official_status":"IMPORTED_UNVERIFIED","source":"OpenStreetMap contributors"}},{"type":"Feature","id":"osm-building-150601910","geometry":{"type":"Polygon","coordinates":[[[36.720792,34.6519492],[36.720941,34.6519522],[36.7209479,34.6517191],[36.7207989,34.6517161],[36.720792,34.6519492]]]},"properties":{"technical_code":"SY-HI-HO-MAS-BLD-OSM-150601910","osm_way_id":150601910,"building_type":"yes","centroid":[36.72086995,34.65183415],"quality_level":"D","official_status":"IMPORTED_UNVERIFIED","source":"OpenStreetMap contributors"}},{"type":"Feature","id":"osm-building-150601911","geometry":{"type":"Polygon","coordinates":[[[36.7147035,34.6610578],[36.7149172,34.6610647],[36.7149736,34.6598847],[36.7147598,34.6598778],[36.7147035,34.6610578]]]},"properties":{"technical_code":"SY-HI-HO-MAS-BLD-OSM-150601911","osm_way_id":150601911,"building_type":"yes","centroid":[36.714838525000005,34.66047125],"quality_level":"D","official_status":"IMPORTED_UNVERIFIED","source":"OpenStreetMap contributors"}},{"type":"Feature","id":"osm-building-150601917","geometry":{"type":"Polygon","coordinates":[[[36.7158933,34.656072],[36.7164498,34.6560921],[36.7164559,34.6559775],[36.7158994,34.6559574],[36.7158933,34.656072]]]},"properties":{"technical_code":"SY-HI-HO-MAS-BLD-OSM-150601917","osm_way_id":150601917,"building_type":"yes","centroid":[36.7161746,34.65602475],"quality_level":"D","official_status":"IMPORTED_UNVERIFIED","source":"OpenStreetMap contributors"}},{"type":"Feature","id":"osm-building-150601920","geometry":{"type":"Polygon","coordinates":[[[36.7156199,34.6647692],[36.716037,34.6647839],[36.7160489,34.664556],[36.7156317,34.6645413],[36.7156199,34.6647692]]]},"properties":{"technical_code":"SY-HI-HO-MAS-BLD-OSM-150601920","osm_way_id":150601920,"building_type":"yes","centroid":[36.715834375,34.6646626],"quality_level":"D","official_status":"IMPORTED_UNVERIFIED","source":"OpenStreetMap contributors"}},{"type":"Feature","id":"osm-building-150601925","geometry":{"type":"Polygon","coordinates":[[[36.7146221,34.6548468],[36.7150537,34.6548641],[36.7150578,34.654795],[36.7146263,34.6547776],[36.7146221,34.6548468]]]},"properties":{"technical_code":"SY-HI-HO-MAS-BLD-OSM-150601925","osm_way_id":150601925,"building_type":"yes","centroid":[36.714839975,34.654820875],"quality_level":"D","official_status":"IMPORTED_UNVERIFIED","source":"OpenStreetMap contributors"}},{"type":"Feature","id":"osm-building-150601931","geometry":{"type":"Polygon","coordinates":[[[36.719404,34.6527485],[36.7195492,34.6527526],[36.7195687,34.6522949],[36.7194235,34.6522907],[36.719404,34.6527485]]]},"properties":{"technical_code":"SY-HI-HO-MAS-BLD-OSM-150601931","osm_way_id":150601931,"building_type":"yes","centroid":[36.71948635,34.652521675],"quality_level":"D","official_status":"IMPORTED_UNVERIFIED","source":"OpenStreetMap contributors"}},{"type":"Feature","id":"osm-building-150601935","geometry":{"type":"Polygon","coordinates":[[[36.7144053,34.6585166],[36.7147128,34.6584921],[36.7146828,34.6582378],[36.7143753,34.6582623],[36.7144053,34.6585166]]]},"properties":{"technical_code":"SY-HI-HO-MAS-BLD-OSM-150601935","osm_way_id":150601935,"building_type":"yes","centroid":[36.71454405,34.6583772],"quality_level":"D","official_status":"IMPORTED_UNVERIFIED","source":"OpenStreetMap contributors"}},{"type":"Feature","id":"osm-building-150601938","geometry":{"type":"Polygon","coordinates":[[[36.7188622,34.6565094],[36.719237,34.6565188],[36.719244,34.6563294],[36.7188692,34.6563201],[36.7188622,34.6565094]]]},"properties":{"technical_code":"SY-HI-HO-MAS-BLD-OSM-150601938","osm_way_id":150601938,"building_type":"yes","centroid":[36.7190531,34.656419424999996],"quality_level":"D","official_status":"IMPORTED_UNVERIFIED","source":"OpenStreetMap contributors"}},{"type":"Feature","id":"osm-building-150601951","geometry":{"type":"Polygon","coordinates":[[[36.716696,34.6646532],[36.7167011,34.664556],[36.7163879,34.6645449],[36.7163753,34.6647862],[36.7173567,34.6648208],[36.7173642,34.6646767],[36.716696,34.6646532]]]},"properties":{"technical_code":"SY-HI-HO-MAS-BLD-OSM-150601951","osm_way_id":150601951,"building_type":"yes","centroid":[36.71681353333333,34.664672966666664],"quality_level":"D","official_status":"IMPORTED_UNVERIFIED","source":"OpenStreetMap contributors"}},{"type":"Feature","id":"osm-building-150601952","geometry":{"type":"Polygon","coordinates":[[[36.7167985,34.6640082],[36.7174044,34.6640296],[36.717428,34.6635758],[36.7174378,34.6633677],[36.7159218,34.6633142],[36.7159095,34.6635505],[36.7168207,34.6635826],[36.7167985,34.6640082]]]},"properties":{"technical_code":"SY-HI-HO-MAS-BLD-OSM-150601952","osm_way_id":150601952,"building_type":"yes","centroid":[36.71681724285714,34.663632657142855],"quality_level":"D","official_status":"IMPORTED_UNVERIFIED","source":"OpenStreetMap contributors"}},{"type":"Feature","id":"osm-building-150601960","geometry":{"type":"Polygon","coordinates":[[[36.7149801,34.652273],[36.7149652,34.6525675],[36.7151329,34.6525733],[36.7151478,34.6522788],[36.7154217,34.6522882],[36.7154299,34.6521282],[36.7146612,34.6521018],[36.7146531,34.6522618],[36.7149801,34.652273]]]},"properties":{"technical_code":"SY-HI-HO-MAS-BLD-OSM-150601960","osm_way_id":150601960,"building_type":"yes","centroid":[36.7150489875,34.652309075],"quality_level":"D","official_status":"IMPORTED_UNVERIFIED","source":"OpenStreetMap contributors"}},{"type":"Feature","id":"osm-building-150601962","geometry":{"type":"Polygon","coordinates":[[[36.7194564,34.6556154],[36.7194505,34.6557266],[36.7196101,34.6557323],[36.7196328,34.6553022],[36.7190693,34.6552822],[36.7190465,34.6557132],[36.7192283,34.6557197],[36.7192342,34.6556075],[36.7194564,34.6556154]]]},"properties":{"technical_code":"SY-HI-HO-MAS-BLD-OSM-150601962","osm_way_id":150601962,"building_type":"yes","centroid":[36.719341012499996,34.6555873875],"quality_level":"D","official_status":"IMPORTED_UNVERIFIED","source":"OpenStreetMap contributors"}},{"type":"Feature","id":"osm-building-152959156","geometry":{"type":"Polygon","coordinates":[[[36.7137801,34.6776742],[36.7148335,34.6776695],[36.7148325,34.6775217],[36.7137791,34.6775263],[36.7137801,34.6776742]]]},"properties":{"technical_code":"SY-HI-HO-MAS-BLD-OSM-152959156","osm_way_id":152959156,"building_type":"yes","centroid":[36.714306300000004,34.677597925],"quality_level":"D","official_status":"IMPORTED_UNVERIFIED","source":"OpenStreetMap contributors"}},{"type":"Feature","id":"osm-building-203982883","geometry":{"type":"Polygon","coordinates":[[[36.7386215,34.6638438],[36.7388151,34.6638455],[36.7388153,34.6638267],[36.7388745,34.6638272],[36.738873,34.6639474],[36.73884,34.6639471],[36.7388396,34.6639772],[36.7387979,34.6639768],[36.7387986,34.6639188],[36.7386206,34.6639173],[36.7386215,34.6638438]]]},"properties":{"technical_code":"SY-HI-HO-MAS-BLD-OSM-203982883","osm_way_id":203982883,"building_type":"yes","centroid":[36.73878961,34.66390278],"quality_level":"D","official_status":"IMPORTED_UNVERIFIED","source":"OpenStreetMap contributors"}},{"type":"Feature","id":"osm-building-203982884","geometry":{"type":"Polygon","coordinates":[[[36.7387212,34.6644749],[36.7387259,34.6645635],[36.7387884,34.6645613],[36.7387838,34.6644727],[36.7387212,34.6644749]]]},"properties":{"technical_code":"SY-HI-HO-MAS-BLD-OSM-203982884","osm_way_id":203982884,"building_type":"yes","centroid":[36.738754825,34.6645181],"quality_level":"D","official_status":"IMPORTED_UNVERIFIED","source":"OpenStreetMap contributors"}},{"type":"Feature","id":"osm-building-203982885","geometry":{"type":"Polygon","coordinates":[[[36.7386427,34.6642532],[36.7386438,34.6643228],[36.7387654,34.6643215],[36.7387644,34.6642519],[36.7386427,34.6642532]]]},"properties":{"technical_code":"SY-HI-HO-MAS-BLD-OSM-203982885","osm_way_id":203982885,"building_type":"yes","centroid":[36.738704075,34.664287349999995],"quality_level":"D","official_status":"IMPORTED_UNVERIFIED","source":"OpenStreetMap contributors"}},{"type":"Feature","id":"osm-building-203982886","geometry":{"type":"Polygon","coordinates":[[[36.7382764,34.6640454],[36.73827,34.6638522],[36.7385484,34.663846],[36.7385508,34.6639188],[36.738391,34.6639224],[36.7383949,34.6640428],[36.7382764,34.6640454]]]},"properties":{"technical_code":"SY-HI-HO-MAS-BLD-OSM-203982886","osm_way_id":203982886,"building_type":"yes","centroid":[36.73840525,34.66393793333333],"quality_level":"D","official_status":"IMPORTED_UNVERIFIED","source":"OpenStreetMap contributors"}},{"type":"Feature","id":"osm-building-203982887","geometry":{"type":"Polygon","coordinates":[[[36.7382606,34.6644778],[36.7382655,34.6646094],[36.7382834,34.6646089],[36.7382854,34.6646623],[36.7385933,34.6646547],[36.7385908,34.6645863],[36.7383907,34.6645913],[36.7383864,34.6644747],[36.7382606,34.6644778]]]},"properties":{"technical_code":"SY-HI-HO-MAS-BLD-OSM-203982887","osm_way_id":203982887,"building_type":"yes","centroid":[36.7383820125,34.664583175000004],"quality_level":"D","official_status":"IMPORTED_UNVERIFIED","source":"OpenStreetMap contributors"}},{"type":"Feature","id":"osm-building-364136565","geometry":{"type":"Polygon","coordinates":[[[36.7134476,34.6702628],[36.7131971,34.6702518],[36.7131765,34.6705688],[36.7132627,34.6705725],[36.7132787,34.6703261],[36.713443,34.6703333],[36.7134476,34.6702628]]]},"properties":{"technical_code":"SY-HI-HO-MAS-BLD-OSM-364136565","osm_way_id":364136565,"building_type":"yes","centroid":[36.713300933333336,34.67038588333333],"quality_level":"D","official_status":"IMPORTED_UNVERIFIED","source":"OpenStreetMap contributors"}}]}